[{"OBJECT_NAME":"STARLINK-30578","OBJECT_ID":"2023-160U","EPOCH":"2025-08-14T03:18:16.405632","MEAN_MOTION":15.02534153,"ECCENTRICITY":0.0001077,"INCLINATION":43.0023,"RA_OF_ASC_NODE":128.2865,"ARG_OF_PERICENTER":269.9803,"MEAN_ANOMALY":90.0915,"EPHEMERIS_TYPE":0,"CLASSIFICATION_TYPE":"U","NORAD_CAT_ID":58093,"ELEMENT_SET_NO":999,"REV_AT_EPOCH":10169,"BSTAR":-3.966e-5,"MEAN_MOTION_DOT":-7.39e-6,"MEAN_MOTION_DDOT":0},{"OBJECT_NAME":"STARLINK-30574","OBJECT_ID":"2023-160V","EPOCH":"2025-08-14T10:09:47.128896","MEAN_MOTION":15.02536947,"ECCENTRICITY":0.000106,"INCLINATION":43.0022,"RA_OF_ASC_NODE":126.1421,"ARG_OF_PERICENTER":268.7127,"MEAN_ANOMALY":91.3594,"EPHEMERIS_TYPE":0,"CLASSIFICATION_TYPE":"U","NORAD_CAT_ID":58094,"ELEMENT_SET_NO":999,"REV_AT_EPOCH":10174,"BSTAR":-1.0803e-5,"MEAN_MOTION_DOT":-3.49e-6,"MEAN_MOTION_DDOT":0},{"OBJECT_NAME":"STARLINK-30570","OBJECT_ID":"2023-160W","EPOCH":"2025-08-14T10:04:58.852704","MEAN_MOTION":15.02539301,"ECCENTRICITY":0.0001113,"INCLINATION":43.0043,"RA_OF_ASC_NODE":126.1161,"ARG_OF_PERICENTER":274.5184,"MEAN_ANOMALY":85.5531,"EPHEMERIS_TYPE":0,"CLASSIFICATION_TYPE":"U","NORAD_CAT_ID":58095,"ELEMENT_SET_NO":999,"REV_AT_EPOCH":10174,"BSTAR":4.8433e-5,"MEAN_MOTION_DOT":4.51e-6,"MEAN_MOTION_DDOT":0},{"OBJECT_NAME":"STARLINK-30581","OBJECT_ID":"2023-160X","EPOCH":"2025-08-14T03:32:39.129504","MEAN_MOTION":15.02533105,"ECCENTRICITY":0.0001016,"INCLINATION":43.0028,"RA_OF_ASC_NODE":128.3585,"ARG_OF_PERICENTER":271.1742,"MEAN_ANOMALY":88.8984,"EPHEMERIS_TYPE":0,"CLASSIFICATION_TYPE":"U","NORAD_CAT_ID":58096,"ELEMENT_SET_NO":999,"REV_AT_EPOCH":10169,"BSTAR":1.3715e-5,"MEAN_MOTION_DOT":-1.8e-7,"MEAN_MOTION_DDOT":0},{"OBJECT_NAME":"STARLINK-30594","OBJECT_ID":"2023-161A","EPOCH":"2025-08-14T12:30:52.692480","MEAN_MOTION":15.30200425,"ECCENTRICITY":0.0001408,"INCLINATION":53.1606,"RA_OF_ASC_NODE":47.7808,"ARG_OF_PERICENTER":127.8695,"MEAN_ANOMALY":232.2433,"EPHEMERIS_TYPE":0,"CLASSIFICATION_TYPE":"U","NORAD_CAT_ID":58097,"ELEMENT_SET_NO":999,"REV_AT_EPOCH":10270,"BSTAR":-1.4941e-6,"MEAN_MOTION_DOT":-4.04e-6,"MEAN_MOTION_DDOT":0},{"OBJECT_NAME":"STARLINK-30614","OBJECT_ID":"2023-161B","EPOCH":"2025-08-13T19:11:44.398752","MEAN_MOTION":15.30188984,"ECCENTRICITY":0.000102,"INCLINATION":53.1611,"RA_OF_ASC_NODE":51.0978,"ARG_OF_PERICENTER":79.4096,"MEAN_ANOMALY":280.702,"EPHEMERIS_TYPE":0,"CLASSIFICATION_TYPE":"U","NORAD_CAT_ID":58098,"ELEMENT_SET_NO":999,"REV_AT_EPOCH":10259,"BSTAR":5.0693e-5,"MEAN_MOTION_DOT":1.142e-5,"MEAN_MOTION_DDOT":0},{"OBJECT_NAME":"STARLINK-30607","OBJECT_ID":"2023-161C","EPOCH":"2025-08-14T04:40:43.930560","MEAN_MOTION":15.30188873,"ECCENTRICITY":0.0001142,"INCLINATION":53.1608,"RA_OF_ASC_NODE":39.3022,"ARG_OF_PERICENTER":105.1144,"MEAN_ANOMALY":254.9983,"EPHEMERIS_TYPE":0,"CLASSIFICATION_TYPE":"U","NORAD_CAT_ID":58099,"ELEMENT_SET_NO":999,"REV_AT_EPOCH":10278,"BSTAR":1.4358e-5,"MEAN_MOTION_DOT":6.6e-7,"MEAN_MOTION_DDOT":0},{"OBJECT_NAME":"STARLINK-30600","OBJECT_ID":"2023-161D","EPOCH":"2025-08-14T12:40:00.098688","MEAN_MOTION":15.30174609,"ECCENTRICITY":9.94e-5,"INCLINATION":53.1618,"RA_OF_ASC_NODE":47.8106,"ARG_OF_PERICENTER":95.3875,"MEAN_ANOMALY":264.7239,"EPHEMERIS_TYPE":0,"CLASSIFICATION_TYPE":"U","NORAD_CAT_ID":58100,"ELEMENT_SET_NO":999,"REV_AT_EPOCH":10270,"BSTAR":0.00015703,"MEAN_MOTION_DOT":4.291e-5,"MEAN_MOTION_DDOT":0},{"OBJECT_NAME":"STARLINK-30605","OBJECT_ID":"2023-161E","EPOCH":"2025-08-14T12:20:14.828064","MEAN_MOTION":15.30191541,"ECCENTRICITY":0.0001169,"INCLINATION":53.1603,"RA_OF_ASC_NODE":47.7332,"ARG_OF_PERICENTER":80.3833,"MEAN_ANOMALY":279.73,"EPHEMERIS_TYPE":0,"CLASSIFICATION_TYPE":"U","NORAD_CAT_ID":58101,"ELEMENT_SET_NO":999,"REV_AT_EPOCH":10270,"BSTAR":4.5073e-5,"MEAN_MOTION_DOT":9.76e-6,"MEAN_MOTION_DDOT":0},{"OBJECT_NAME":"STARLINK-30592","OBJECT_ID":"2023-161F","EPOCH":"2025-08-13T19:01:06.019392","MEAN_MOTION":15.30196263,"ECCENTRICITY":0.0001095,"INCLINATION":53.1608,"RA_OF_ASC_NODE":51.0508,"ARG_OF_PERICENTER":79.3176,"MEAN_ANOMALY":280.7948,"EPHEMERIS_TYPE":0,"CLASSIFICATION_TYPE":"U","NORAD_CAT_ID":58102,"ELEMENT_SET_NO":999,"REV_AT_EPOCH":10259,"BSTAR":-9.2984e-6,"MEAN_MOTION_DOT":-6.34e-6,"MEAN_MOTION_DDOT":0},{"OBJECT_NAME":"STARLINK-30589","OBJECT_ID":"2023-161G","EPOCH":"2025-08-14T11:39:20.230848","MEAN_MOTION":15.3018884,"ECCENTRICITY":7.71e-5,"INCLINATION":53.1608,"RA_OF_ASC_NODE":48.068,"ARG_OF_PERICENTER":42.6167,"MEAN_ANOMALY":317.4893,"EPHEMERIS_TYPE":0,"CLASSIFICATION_TYPE":"U","NORAD_CAT_ID":58103,"ELEMENT_SET_NO":999,"REV_AT_EPOCH":10269,"BSTAR":-3.5012e-5,"MEAN_MOTION_DOT":-1.395e-5,"MEAN_MOTION_DDOT":0},{"OBJECT_NAME":"STARLINK-30617","OBJECT_ID":"2023-161H","EPOCH":"2025-08-13T21:37:24.895776","MEAN_MOTION":15.30202007,"ECCENTRICITY":9.1e-5,"INCLINATION":53.1607,"RA_OF_ASC_NODE":50.8213,"ARG_OF_PERICENTER":102.9766,"MEAN_ANOMALY":257.1337,"EPHEMERIS_TYPE":0,"CLASSIFICATION_TYPE":"U","NORAD_CAT_ID":58104,"ELEMENT_SET_NO":999,"REV_AT_EPOCH":10260,"BSTAR":-4.0264e-5,"MEAN_MOTION_DOT":-1.551e-5,"MEAN_MOTION_DDOT":0},{"OBJECT_NAME":"STARLINK-30616","OBJECT_ID":"2023-161J","EPOCH":"2025-08-14T04:24:35.207712","MEAN_MOTION":15.30191796,"ECCENTRICITY":0.0001114,"INCLINATION":53.1611,"RA_OF_ASC_NODE":36.2768,"ARG_OF_PERICENTER":99.06,"MEAN_ANOMALY":261.0526,"EPHEMERIS_TYPE":0,"CLASSIFICATION_TYPE":"U","NORAD_CAT_ID":58105,"ELEMENT_SET_NO":999,"REV_AT_EPOCH":10282,"BSTAR":-6.5368e-6,"MEAN_MOTION_DOT":-5.53e-6,"MEAN_MOTION_DDOT":0},{"OBJECT_NAME":"STARLINK-30612","OBJECT_ID":"2023-161K","EPOCH":"2025-08-14T10:51:26.199648","MEAN_MOTION":15.30196004,"ECCENTRICITY":0.000123,"INCLINATION":53.1605,"RA_OF_ASC_NODE":35.124,"ARG_OF_PERICENTER":94.2422,"MEAN_ANOMALY":265.8719,"EPHEMERIS_TYPE":0,"CLASSIFICATION_TYPE":"U","NORAD_CAT_ID":58106,"ELEMENT_SET_NO":999,"REV_AT_EPOCH":10287,"BSTAR":-6.2805e-6,"MEAN_MOTION_DOT":-5.45e-6,"MEAN_MOTION_DDOT":0},{"OBJECT_NAME":"STARLINK-30421","OBJECT_ID":"2023-161L","EPOCH":"2025-08-14T04:42:49.307328","MEAN_MOTION":15.30199967,"ECCENTRICITY":0.0001416,"INCLINATION":53.162,"RA_OF_ASC_NODE":36.3357,"ARG_OF_PERICENTER":74.3311,"MEAN_ANOMALY":285.7846,"EPHEMERIS_TYPE":0,"CLASSIFICATION_TYPE":"U","NORAD_CAT_ID":58107,"ELEMENT_SET_NO":999,"REV_AT_EPOCH":10283,"BSTAR":7.1291e-5,"MEAN_MOTION_DOT":1.753e-5,"MEAN_MOTION_DDOT":0},{"OBJECT_NAME":"STARLINK-30611","OBJECT_ID":"2023-161M","EPOCH":"2025-08-14T11:29:24.740448","MEAN_MOTION":15.30195339,"ECCENTRICITY":0.0001167,"INCLINATION":53.1613,"RA_OF_ASC_NODE":35.2275,"ARG_OF_PERICENTER":79.6145,"MEAN_ANOMALY":280.4987,"EPHEMERIS_TYPE":0,"CLASSIFICATION_TYPE":"U","NORAD_CAT_ID":58108,"ELEMENT_SET_NO":999,"REV_AT_EPOCH":10287,"BSTAR":4.508e-5,"MEAN_MOTION_DOT":9.76e-6,"MEAN_MOTION_DDOT":0},{"OBJECT_NAME":"STARLINK-30606","OBJECT_ID":"2023-161N","EPOCH":"2025-08-14T12:35:26.497536","MEAN_MOTION":15.30195033,"ECCENTRICITY":0.000116,"INCLINATION":53.1606,"RA_OF_ASC_NODE":47.7953,"ARG_OF_PERICENTER":77,"MEAN_ANOMALY":283.113,"EPHEMERIS_TYPE":0,"CLASSIFICATION_TYPE":"U","NORAD_CAT_ID":58109,"ELEMENT_SET_NO":999,"REV_AT_EPOCH":10270,"BSTAR":-3.2747e-6,"MEAN_MOTION_DOT":-4.56e-6,"MEAN_MOTION_DDOT":0},{"OBJECT_NAME":"STARLINK-30596","OBJECT_ID":"2023-161P","EPOCH":"2025-08-14T12:02:00.541824","MEAN_MOTION":15.30188937,"ECCENTRICITY":0.0001241,"INCLINATION":53.1617,"RA_OF_ASC_NODE":47.6553,"ARG_OF_PERICENTER":89.9897,"MEAN_ANOMALY":270.1246,"EPHEMERIS_TYPE":0,"CLASSIFICATION_TYPE":"U","NORAD_CAT_ID":58110,"ELEMENT_SET_NO":999,"REV_AT_EPOCH":10270,"BSTAR":2.5888e-5,"MEAN_MOTION_DOT":4.07e-6,"MEAN_MOTION_DDOT":0},{"OBJECT_NAME":"STARLINK-30595","OBJECT_ID":"2023-161Q","EPOCH":"2025-08-13T19:39:05.886432","MEAN_MOTION":15.30196397,"ECCENTRICITY":0.0001007,"INCLINATION":53.1613,"RA_OF_ASC_NODE":51.2151,"ARG_OF_PERICENTER":85.0516,"MEAN_ANOMALY":275.0599,"EPHEMERIS_TYPE":0,"CLASSIFICATION_TYPE":"U","NORAD_CAT_ID":58111,"ELEMENT_SET_NO":999,"REV_AT_EPOCH":10259,"BSTAR":-2.8637e-5,"MEAN_MOTION_DOT":-1.207e-5,"MEAN_MOTION_DDOT":0},{"OBJECT_NAME":"STARLINK-30593","OBJECT_ID":"2023-161R","EPOCH":"2025-08-14T04:58:50.852928","MEAN_MOTION":15.30196723,"ECCENTRICITY":3.45e-5,"INCLINATION":53.1602,"RA_OF_ASC_NODE":49.3712,"ARG_OF_PERICENTER":124.2555,"MEAN_ANOMALY":235.8479,"EPHEMERIS_TYPE":0,"CLASSIFICATION_TYPE":"U","NORAD_CAT_ID":58112,"ELEMENT_SET_NO":999,"REV_AT_EPOCH":10265,"BSTAR":-3.1005e-8,"MEAN_MOTION_DOT":-3.59e-6,"MEAN_MOTION_DDOT":0},{"OBJECT_NAME":"STARLINK-30353","OBJECT_ID":"2023-161S","EPOCH":"2025-08-14T05:12:31.929408","MEAN_MOTION":15.30191182,"ECCENTRICITY":0.0001126,"INCLINATION":53.1614,"RA_OF_ASC_NODE":49.4334,"ARG_OF_PERICENTER":97.4501,"MEAN_ANOMALY":262.6627,"EPHEMERIS_TYPE":0,"CLASSIFICATION_TYPE":"U","NORAD_CAT_ID":58113,"ELEMENT_SET_NO":999,"REV_AT_EPOCH":10265,"BSTAR":-2.1391e-5,"MEAN_MOTION_DOT":-9.92e-6,"MEAN_MOTION_DDOT":0},{"OBJECT_NAME":"STARLINK-30572","OBJECT_ID":"2023-161T","EPOCH":"2025-08-14T04:54:17.233632","MEAN_MOTION":15.30196966,"ECCENTRICITY":0.0001007,"INCLINATION":53.161,"RA_OF_ASC_NODE":49.3505,"ARG_OF_PERICENTER":81.9881,"MEAN_ANOMALY":278.1234,"EPHEMERIS_TYPE":0,"CLASSIFICATION_TYPE":"U","NORAD_CAT_ID":58114,"ELEMENT_SET_NO":999,"REV_AT_EPOCH":10265,"BSTAR":3.444e-5,"MEAN_MOTION_DOT":6.61e-6,"MEAN_MOTION_DDOT":0},{"OBJECT_NAME":"STARLINK-30580","OBJECT_ID":"2023-161U","EPOCH":"2025-08-14T12:06:33.740352","MEAN_MOTION":15.3019258,"ECCENTRICITY":0.0001172,"INCLINATION":53.1622,"RA_OF_ASC_NODE":47.6552,"ARG_OF_PERICENTER":80.6811,"MEAN_ANOMALY":279.4322,"EPHEMERIS_TYPE":0,"CLASSIFICATION_TYPE":"U","NORAD_CAT_ID":58115,"ELEMENT_SET_NO":999,"REV_AT_EPOCH":10270,"BSTAR":1.498e-5,"MEAN_MOTION_DOT":8.4e-7,"MEAN_MOTION_DDOT":0}]
